[
  {
    "CCSDS_OMM_VERS": "3.0",
    "COMMENT": "GENERATED VIA SPACE-TRACK.ORG API",
    "CREATION_DATE": "2026-02-19T18:56:29",
    "ORIGINATOR": "18 SPCS",
    "OBJECT_NAME": "SPACEVAN-001",
    "OBJECT_ID": "2023-174AR",
    "CENTER_NAME": "EARTH",
    "REF_FRAME": "TEME",
    "TIME_SYSTEM": "UTC",
    "MEAN_ELEMENT_THEORY": "SGP4",
    "EPOCH": "2026-02-19T16:17:23.321760",
    "MEAN_MOTION": "15.56999753",
    "ECCENTRICITY": "0.00102520",
    "INCLINATION": "97.3896",
    "RA_OF_ASC_NODE": "143.3300",
    "ARG_OF_PERICENTER": "149.6619",
    "MEAN_ANOMALY": "210.5232",
    "EPHEMERIS_TYPE": "0",
    "CLASSIFICATION_TYPE": "U",
    "NORAD_CAT_ID": "58295",
    "ELEMENT_SET_NO": "999",
    "REV_AT_EPOCH": "12785",
    "BSTAR": "0.00000497830000",
    "MEAN_MOTION_DOT": "0.00000255",
    "MEAN_MOTION_DDOT": "0.0000000000000",
    "SEMIMAJOR_AXIS": "6774.483",
    "PERIOD": "92.486",
    "APOAPSIS": "403.293",
    "PERIAPSIS": "389.403",
    "OBJECT_TYPE": "PAYLOAD",
    "RCS_SIZE": "MEDIUM",
    "COUNTRY_CODE": "FR",
    "LAUNCH_DATE": "2023-11-11",
    "SITE": "AFWTR",
    "DECAY_DATE": null,
    "FILE": "5039989",
    "GP_ID": "313187968",
    "TLE_LINE0": "0 SPACEVAN-001",
    "TLE_LINE1": "1 58295U 23174AR  26050.67874215  .00000255  00000-0  49783-5 0  9997",
    "TLE_LINE2": "2 58295  97.3896 143.3300 0010252 149.6619 210.5232 15.56999753127850"
  },
  {
    "CCSDS_OMM_VERS": "3.0",
    "COMMENT": "GENERATED VIA SPACE-TRACK.ORG API",
    "CREATION_DATE": "2026-02-19T17:36:33",
    "ORIGINATOR": "18 SPCS",
    "OBJECT_NAME": "SUPERVIEW NEO-2 01",
    "OBJECT_ID": "2022-082A",
    "CENTER_NAME": "EARTH",
    "REF_FRAME": "TEME",
    "TIME_SYSTEM": "UTC",
    "MEAN_ELEMENT_THEORY": "SGP4",
    "EPOCH": "2026-02-19T16:16:08.392224",
    "MEAN_MOTION": "15.24507516",
    "ECCENTRICITY": "0.00016220",
    "INCLINATION": "97.3938",
    "RA_OF_ASC_NODE": "62.1772",
    "ARG_OF_PERICENTER": "93.1851",
    "MEAN_ANOMALY": "266.9572",
    "EPHEMERIS_TYPE": "0",
    "CLASSIFICATION_TYPE": "U",
    "NORAD_CAT_ID": "53128",
    "ELEMENT_SET_NO": "999",
    "REV_AT_EPOCH": "20030",
    "BSTAR": "-0.00000066995000",
    "MEAN_MOTION_DOT": "-0.00000086",
    "MEAN_MOTION_DDOT": "0.0000000000000",
    "SEMIMAJOR_AXIS": "6870.402",
    "PERIOD": "94.457",
    "APOAPSIS": "493.381",
    "PERIAPSIS": "491.152",
    "OBJECT_TYPE": "PAYLOAD",
    "RCS_SIZE": "LARGE",
    "COUNTRY_CODE": "PRC",
    "LAUNCH_DATE": "2022-07-15",
    "SITE": "TSC",
    "DECAY_DATE": null,
    "FILE": "5039960",
    "GP_ID": "313155235",
    "TLE_LINE0": "0 SUPERVIEW NEO-2 01",
    "TLE_LINE1": "1 53128U 22082A   26050.67787491 -.00000086  00000-0 -66995-6 0  9992",
    "TLE_LINE2": "2 53128  97.3938  62.1772 0001622  93.1851 266.9572 15.24507516200301"
  },
  {
    "CCSDS_OMM_VERS": "3.0",
    "COMMENT": "GENERATED VIA SPACE-TRACK.ORG API",
    "CREATION_DATE": "2026-02-19T17:56:26",
    "ORIGINATOR": "18 SPCS",
    "OBJECT_NAME": "IMECE",
    "OBJECT_ID": "2023-054A",
    "CENTER_NAME": "EARTH",
    "REF_FRAME": "TEME",
    "TIME_SYSTEM": "UTC",
    "MEAN_ELEMENT_THEORY": "SGP4",
    "EPOCH": "2026-02-19T16:14:18.350592",
    "MEAN_MOTION": "14.65844072",
    "ECCENTRICITY": "0.00094830",
    "INCLINATION": "98.1320",
    "RA_OF_ASC_NODE": "316.7454",
    "ARG_OF_PERICENTER": "172.9533",
    "MEAN_ANOMALY": "187.1806",
    "EPHEMERIS_TYPE": "0",
    "CLASSIFICATION_TYPE": "U",
    "NORAD_CAT_ID": "56178",
    "ELEMENT_SET_NO": "999",
    "REV_AT_EPOCH": "15319",
    "BSTAR": "0.00002725700000",
    "MEAN_MOTION_DOT": "0.00000101",
    "MEAN_MOTION_DDOT": "0.0000000000000",
    "SEMIMAJOR_AXIS": "7052.504",
    "PERIOD": "98.237",
    "APOAPSIS": "681.057",
    "PERIAPSIS": "667.681",
    "OBJECT_TYPE": "PAYLOAD",
    "RCS_SIZE": "LARGE",
    "COUNTRY_CODE": "TURK",
    "LAUNCH_DATE": "2023-04-15",
    "SITE": "AFWTR",
    "DECAY_DATE": null,
    "FILE": "5039968",
    "GP_ID": "313155243",
    "TLE_LINE0": "0 IMECE",
    "TLE_LINE1": "1 56178U 23054A   26050.67660128  .00000101  00000-0  27257-4 0  9999",
    "TLE_LINE2": "2 56178  98.1320 316.7454 0009483 172.9533 187.1806 14.65844072153197"
  },
  {
    "CCSDS_OMM_VERS": "3.0",
    "COMMENT": "GENERATED VIA SPACE-TRACK.ORG API",
    "CREATION_DATE": "2026-02-19T17:06:44",
    "ORIGINATOR": "18 SPCS",
    "OBJECT_NAME": "CE-SAT IIB",
    "OBJECT_ID": "2020-077F",
    "CENTER_NAME": "EARTH",
    "REF_FRAME": "TEME",
    "TIME_SYSTEM": "UTC",
    "MEAN_ELEMENT_THEORY": "SGP4",
    "EPOCH": "2026-02-19T16:11:20.369184",
    "MEAN_MOTION": "15.76278978",
    "ECCENTRICITY": "0.00031410",
    "INCLINATION": "97.2172",
    "RA_OF_ASC_NODE": "127.0062",
    "ARG_OF_PERICENTER": "219.6741",
    "MEAN_ANOMALY": "140.4296",
    "EPHEMERIS_TYPE": "0",
    "CLASSIFICATION_TYPE": "U",
    "NORAD_CAT_ID": "46818",
    "ELEMENT_SET_NO": "999",
    "REV_AT_EPOCH": "29665",
    "BSTAR": "0.00015072000000",
    "MEAN_MOTION_DOT": "0.00023510",
    "MEAN_MOTION_DDOT": "0.0000000000000",
    "SEMIMAJOR_AXIS": "6719.131",
    "PERIOD": "91.354",
    "APOAPSIS": "343.107",
    "PERIAPSIS": "338.886",
    "OBJECT_TYPE": "PAYLOAD",
    "RCS_SIZE": "MEDIUM",
    "COUNTRY_CODE": "JPN",
    "LAUNCH_DATE": "2020-10-28",
    "SITE": "RLLC",
    "DECAY_DATE": null,
    "FILE": "5039947",
    "GP_ID": "313155221",
    "TLE_LINE0": "0 CE-SAT IIB",
    "TLE_LINE1": "1 46818U 20077F   26050.67454131  .00023510  00000-0  15072-3 0  9996",
    "TLE_LINE2": "2 46818  97.2172 127.0062 0003141 219.6741 140.4296 15.76278978296658"
  },
  {
    "CCSDS_OMM_VERS": "3.0",
    "COMMENT": "GENERATED VIA SPACE-TRACK.ORG API",
    "CREATION_DATE": "2026-02-19T19:16:27",
    "ORIGINATOR": "18 SPCS",
    "OBJECT_NAME": "PRC TEST SPACECRAFT 4",
    "OBJECT_ID": "2026-024A",
    "CENTER_NAME": "EARTH",
    "REF_FRAME": "TEME",
    "TIME_SYSTEM": "UTC",
    "MEAN_ELEMENT_THEORY": "SGP4",
    "EPOCH": "2026-02-19T16:10:30.292608",
    "MEAN_MOTION": "14.91674695",
    "ECCENTRICITY": "0.00061820",
    "INCLINATION": "49.9851",
    "RA_OF_ASC_NODE": "107.3423",
    "ARG_OF_PERICENTER": "290.7233",
    "MEAN_ANOMALY": "69.3045",
    "EPHEMERIS_TYPE": "0",
    "CLASSIFICATION_TYPE": "U",
    "NORAD_CAT_ID": "67689",
    "ELEMENT_SET_NO": "999",
    "REV_AT_EPOCH": "189",
    "BSTAR": "0.00002084900000",
    "MEAN_MOTION_DOT": "-0.00000032",
    "MEAN_MOTION_DDOT": "0.0000000000000",
    "SEMIMAJOR_AXIS": "6970.850",
    "PERIOD": "96.536",
    "APOAPSIS": "597.025",
    "PERIAPSIS": "588.406",
    "OBJECT_TYPE": "PAYLOAD",
    "RCS_SIZE": null,
    "COUNTRY_CODE": "PRC",
    "LAUNCH_DATE": "2026-02-07",
    "SITE": "JSC",
    "DECAY_DATE": null,
    "FILE": "5039997",
    "GP_ID": "313188015",
    "TLE_LINE0": "0 PRC TEST SPACECRAFT 4",
    "TLE_LINE1": "1 67689U 26024A   26050.67396172 -.00000032  00000-0  20849-4 0  9997",
    "TLE_LINE2": "2 67689  49.9851 107.3423 0006182 290.7233  69.3045 14.91674695  1894"
  },
  {
    "CCSDS_OMM_VERS": "3.0",
    "COMMENT": "GENERATED VIA SPACE-TRACK.ORG API",
    "CREATION_DATE": "2026-02-19T17:36:33",
    "ORIGINATOR": "18 SPCS",
    "OBJECT_NAME": "STARLINK-3262",
    "OBJECT_ID": "2021-125BD",
    "CENTER_NAME": "EARTH",
    "REF_FRAME": "TEME",
    "TIME_SYSTEM": "UTC",
    "MEAN_ELEMENT_THEORY": "SGP4",
    "EPOCH": "2026-02-19T16:06:11.736288",
    "MEAN_MOTION": "16.14133662",
    "ECCENTRICITY": "0.00021080",
    "INCLINATION": "53.2114",
    "RA_OF_ASC_NODE": "300.9008",
    "ARG_OF_PERICENTER": "259.6927",
    "MEAN_ANOMALY": "100.3874",
    "EPHEMERIS_TYPE": "0",
    "CLASSIFICATION_TYPE": "U",
    "NORAD_CAT_ID": "50207",
    "ELEMENT_SET_NO": "999",
    "REV_AT_EPOCH": "23227",
    "BSTAR": "0.00066086000000",
    "MEAN_MOTION_DOT": "0.00840797",
    "MEAN_MOTION_DDOT": "0.0004387800000",
    "SEMIMAJOR_AXIS": "6613.665",
    "PERIOD": "89.212",
    "APOAPSIS": "236.924",
    "PERIAPSIS": "234.136",
    "OBJECT_TYPE": "PAYLOAD",
    "RCS_SIZE": "LARGE",
    "COUNTRY_CODE": "US",
    "LAUNCH_DATE": "2021-12-18",
    "SITE": "AFWTR",
    "DECAY_DATE": null,
    "FILE": "5039956",
    "GP_ID": "313155233",
    "TLE_LINE0": "0 STARLINK-3262",
    "TLE_LINE1": "1 50207U 21125BD  26050.67096917  .00840797  43878-3  66086-3 0  9990",
    "TLE_LINE2": "2 50207  53.2114 300.9008 0002108 259.6927 100.3874 16.14133662232275"
  },
  {
    "CCSDS_OMM_VERS": "3.0",
    "COMMENT": "GENERATED VIA SPACE-TRACK.ORG API",
    "CREATION_DATE": "2026-02-19T17:36:33",
    "ORIGINATOR": "18 SPCS",
    "OBJECT_NAME": "ENMAP",
    "OBJECT_ID": "2022-033C",
    "CENTER_NAME": "EARTH",
    "REF_FRAME": "TEME",
    "TIME_SYSTEM": "UTC",
    "MEAN_ELEMENT_THEORY": "SGP4",
    "EPOCH": "2026-02-19T16:02:20.514336",
    "MEAN_MOTION": "14.74944522",
    "ECCENTRICITY": "0.00011060",
    "INCLINATION": "97.9798",
    "RA_OF_ASC_NODE": "134.5903",
    "ARG_OF_PERICENTER": "83.0755",
    "MEAN_ANOMALY": "277.0579",
    "EPHEMERIS_TYPE": "0",
    "CLASSIFICATION_TYPE": "U",
    "NORAD_CAT_ID": "52159",
    "ELEMENT_SET_NO": "999",
    "REV_AT_EPOCH": "20933",
    "BSTAR": "0.00007280000000",
    "MEAN_MOTION_DOT": "0.00000439",
    "MEAN_MOTION_DDOT": "0.0000000000000",
    "SEMIMAJOR_AXIS": "7023.464",
    "PERIOD": "97.631",
    "APOAPSIS": "646.106",
    "PERIAPSIS": "644.553",
    "OBJECT_TYPE": "PAYLOAD",
    "RCS_SIZE": "LARGE",
    "COUNTRY_CODE": "GER",
    "LAUNCH_DATE": "2022-04-01",
    "SITE": "AFETR",
    "DECAY_DATE": null,
    "FILE": "5039958",
    "GP_ID": "313155234",
    "TLE_LINE0": "0 ENMAP",
    "TLE_LINE1": "1 52159U 22033C   26050.66829299  .00000439  00000-0  72800-4 0  9993",
    "TLE_LINE2": "2 52159  97.9798 134.5903 0001106  83.0755 277.0579 14.74944522209330"
  }
]